ONEWEB-0294             
1 49083U 21075J   26025.46201908 -.00000380  00000+0 -10914-2 0  9993
2 49083  87.8940  18.9904 0001663  98.1267 262.0050 13.12441755215851
ONEWEB-0295             
1 49084U 21075K   26026.26304669  .00000012  00000+0 -14456-5 0  9990
2 49084  87.9084  34.0746 0002129  95.2413 264.8962 13.17647521214905
ONEWEB-0296             
1 49085U 21075L   26026.05160200  .00000262  00000+0  69331-3 0  9995
2 49085  87.8937  18.8758 0002046  95.5154 264.6208 13.12440227215932
ONEWEB-0297             
1 49086U 21075M   26025.92961267 -.00000609  00000+0 -17288-2 0  9993
2 49086  87.8933  18.9289 0001904  86.8764 273.2583 13.12442877216522
ONEWEB-0298             
1 49087U 21075N   26025.96365257  .00000096  00000+0  21367-3 0  9997
2 49087  87.9085  34.1309 0001902  85.5991 274.5358 13.17647357214898
ONEWEB-0299             
1 49088U 21075P   26026.26894191 -.00000040  00000+0 -13520-3 0  9999
2 49088  87.9098  34.0363 0001997  90.6655 269.4705 13.17651134214910
ONEWEB-0300             
1 49089U 21075Q   26025.69328094 -.00000355  00000+0 -10221-2 0  9993
2 49089  87.8940  18.9405 0001878  76.0222 284.1116 13.12444423216514
ONEWEB-0301             
1 49090U 21075R   26026.21084698  .00000121  00000+0  29973-3 0  9997
2 49090  87.8937  18.8383 0001785  74.4866 285.6460 13.12440783215948
ONEWEB-0302             
1 49091U 21075S   26026.04483253  .00000264  00000+0  69961-3 0  9998
2 49091  87.8942  18.8798 0001816  99.3085 260.8249 13.12441773215905
ONEWEB-0304             
1 49092U 21075T   26026.24364674 -.00000034  00000+0 -12063-3 0  9994
2 49092  87.9098  34.0719 0001916  91.8357 268.2995 13.17649070214883
ONEWEB-0305             
1 49093U 21075U   26026.31283203  .00000188  00000+0  45159-3 0  9991
2 49093  87.9096  34.0363 0002258  92.3920 267.7470 13.17650834214926
ONEWEB-0308             
1 49094U 21075V   26026.26676295  .00000428  00000+0  11535-2 0  9990
2 49094  87.8937  18.8291 0001800  87.2688 272.8646 13.12442671215944
ONEWEB-0309             
1 49095U 21075W   26026.31619437  .00000110  00000+0  25072-3 0  9992
2 49095  87.9096  34.0508 0001766 104.1327 256.0001 13.17651192214890
ONEWEB-0310             
1 49096U 21075X   26025.90081778  .00000229  00000+0  60171-3 0  9998
2 49096  87.8930  18.9354 0001757  87.9189 272.2140 13.12440852216521
ONEWEB-0311             
1 49097U 21075Y   26026.24702460  .00000008  00000+0 -12822-4 0  9992
2 49097  87.9096  34.0596 0002170  88.9786 271.1594 13.17649198214930
ONEWEB-0312             
1 49098U 21075Z   26026.26219528 -.00000029  00000+0 -10668-3 0  9992
2 49098  87.9084  34.0783 0002075  97.8832 262.2535 13.17650964214918
ONEWEB-0313             
1 49099U 21075AA  26025.96338003  .00000047  00000+0  88934-4 0  9999
2 49099  87.9082  34.1446 0001934  89.2511 270.8842 13.17651166214861
