[{"OBJECT_NAME":"ONEWEB-0294","OBJECT_ID":"2021-075J","EPOCH":"2026-01-25T11:05:18.448512","MEAN_MOTION":13.12441755,"ECCENTRICITY":0.00016637,"INCLINATION":87.894,"RA_OF_ASC_NODE":18.9904,"ARG_OF_PERICENTER":98.1267,"MEAN_ANOMALY":262.005,"EPHEMERIS_TYPE":0,"CLASSIFICATION_TYPE":"U","NORAD_CAT_ID":49083,"ELEMENT_SET_NO":999,"REV_AT_EPOCH":21585,"BSTAR":-0.0010914129,"MEAN_MOTION_DOT":-3.8e-6,"MEAN_MOTION_DDOT":0},{"OBJECT_NAME":"ONEWEB-0295","OBJECT_ID":"2021-075K","EPOCH":"2026-01-26T06:18:47.234016","MEAN_MOTION":13.17647521,"ECCENTRICITY":0.00021296,"INCLINATION":87.9084,"RA_OF_ASC_NODE":34.0746,"ARG_OF_PERICENTER":95.2413,"MEAN_ANOMALY":264.8962,"EPHEMERIS_TYPE":0,"CLASSIFICATION_TYPE":"U","NORAD_CAT_ID":49084,"ELEMENT_SET_NO":999,"REV_AT_EPOCH":21490,"BSTAR":-1.445609e-6,"MEAN_MOTION_DOT":1.2e-7,"MEAN_MOTION_DDOT":0},{"OBJECT_NAME":"ONEWEB-0296","OBJECT_ID":"2021-075L","EPOCH":"2026-01-26T01:14:18.412800","MEAN_MOTION":13.12440227,"ECCENTRICITY":0.0002046,"INCLINATION":87.8937,"RA_OF_ASC_NODE":18.8758,"ARG_OF_PERICENTER":95.5154,"MEAN_ANOMALY":264.6208,"EPHEMERIS_TYPE":0,"CLASSIFICATION_TYPE":"U","NORAD_CAT_ID":49085,"ELEMENT_SET_NO":999,"REV_AT_EPOCH":21593,"BSTAR":0.00069331075,"MEAN_MOTION_DOT":2.62e-6,"MEAN_MOTION_DDOT":0},{"OBJECT_NAME":"ONEWEB-0297","OBJECT_ID":"2021-075M","EPOCH":"2026-01-25T22:18:38.534688","MEAN_MOTION":13.12442877,"ECCENTRICITY":0.00019048,"INCLINATION":87.8933,"RA_OF_ASC_NODE":18.9289,"ARG_OF_PERICENTER":86.8764,"MEAN_ANOMALY":273.2583,"EPHEMERIS_TYPE":0,"CLASSIFICATION_TYPE":"U","NORAD_CAT_ID":49086,"ELEMENT_SET_NO":999,"REV_AT_EPOCH":21652,"BSTAR":-0.0017287617,"MEAN_MOTION_DOT":-6.09e-6,"MEAN_MOTION_DDOT":0},{"OBJECT_NAME":"ONEWEB-0298","OBJECT_ID":"2021-075N","EPOCH":"2026-01-25T23:07:39.582048","MEAN_MOTION":13.17647357,"ECCENTRICITY":0.0001902,"INCLINATION":87.9085,"RA_OF_ASC_NODE":34.1309,"ARG_OF_PERICENTER":85.5991,"MEAN_ANOMALY":274.5358,"EPHEMERIS_TYPE":0,"CLASSIFICATION_TYPE":"U","NORAD_CAT_ID":49087,"ELEMENT_SET_NO":999,"REV_AT_EPOCH":21489,"BSTAR":0.00021367285,"MEAN_MOTION_DOT":9.6e-7,"MEAN_MOTION_DDOT":0},{"OBJECT_NAME":"ONEWEB-0299","OBJECT_ID":"2021-075P","EPOCH":"2026-01-26T06:27:16.581024","MEAN_MOTION":13.17651134,"ECCENTRICITY":0.00019973,"INCLINATION":87.9098,"RA_OF_ASC_NODE":34.0363,"ARG_OF_PERICENTER":90.6655,"MEAN_ANOMALY":269.4705,"EPHEMERIS_TYPE":0,"CLASSIFICATION_TYPE":"U","NORAD_CAT_ID":49088,"ELEMENT_SET_NO":999,"REV_AT_EPOCH":21491,"BSTAR":-0.00013520275,"MEAN_MOTION_DOT":-4.0e-7,"MEAN_MOTION_DDOT":0},{"OBJECT_NAME":"ONEWEB-0300","OBJECT_ID":"2021-075Q","EPOCH":"2026-01-25T16:38:19.473216","MEAN_MOTION":13.12444423,"ECCENTRICITY":0.00018783,"INCLINATION":87.894,"RA_OF_ASC_NODE":18.9405,"ARG_OF_PERICENTER":76.0222,"MEAN_ANOMALY":284.1116,"EPHEMERIS_TYPE":0,"CLASSIFICATION_TYPE":"U","NORAD_CAT_ID":49089,"ELEMENT_SET_NO":999,"REV_AT_EPOCH":21651,"BSTAR":-0.001022092,"MEAN_MOTION_DOT":-3.55e-6,"MEAN_MOTION_DDOT":0},{"OBJECT_NAME":"ONEWEB-0301","OBJECT_ID":"2021-075R","EPOCH":"2026-01-26T05:03:37.179072","MEAN_MOTION":13.12440783,"ECCENTRICITY":0.00017858,"INCLINATION":87.8937,"RA_OF_ASC_NODE":18.8383,"ARG_OF_PERICENTER":74.4866,"MEAN_ANOMALY":285.646,"EPHEMERIS_TYPE":0,"CLASSIFICATION_TYPE":"U","NORAD_CAT_ID":49090,"ELEMENT_SET_NO":999,"REV_AT_EPOCH":21594,"BSTAR":0.0002997266,"MEAN_MOTION_DOT":1.21e-6,"MEAN_MOTION_DDOT":0},{"OBJECT_NAME":"ONEWEB-0302","OBJECT_ID":"2021-075S","EPOCH":"2026-01-26T01:04:33.530592","MEAN_MOTION":13.12441773,"ECCENTRICITY":0.00018166,"INCLINATION":87.8942,"RA_OF_ASC_NODE":18.8798,"ARG_OF_PERICENTER":99.3085,"MEAN_ANOMALY":260.8249,"EPHEMERIS_TYPE":0,"CLASSIFICATION_TYPE":"U","NORAD_CAT_ID":49091,"ELEMENT_SET_NO":999,"REV_AT_EPOCH":21590,"BSTAR":0.00069960974,"MEAN_MOTION_DOT":2.64e-6,"MEAN_MOTION_DDOT":0},{"OBJECT_NAME":"ONEWEB-0304","OBJECT_ID":"2021-075T","EPOCH":"2026-01-26T05:50:51.078336","MEAN_MOTION":13.1764907,"ECCENTRICITY":0.00019165,"INCLINATION":87.9098,"RA_OF_ASC_NODE":34.0719,"ARG_OF_PERICENTER":91.8357,"MEAN_ANOMALY":268.2995,"EPHEMERIS_TYPE":0,"CLASSIFICATION_TYPE":"U","NORAD_CAT_ID":49092,"ELEMENT_SET_NO":999,"REV_AT_EPOCH":21488,"BSTAR":-0.0001206338,"MEAN_MOTION_DOT":-3.4e-7,"MEAN_MOTION_DDOT":0},{"OBJECT_NAME":"ONEWEB-0305","OBJECT_ID":"2021-075U","EPOCH":"2026-01-26T07:30:28.687392","MEAN_MOTION":13.17650834,"ECCENTRICITY":0.00022588,"INCLINATION":87.9096,"RA_OF_ASC_NODE":34.0363,"ARG_OF_PERICENTER":92.392,"MEAN_ANOMALY":267.747,"EPHEMERIS_TYPE":0,"CLASSIFICATION_TYPE":"U","NORAD_CAT_ID":49093,"ELEMENT_SET_NO":999,"REV_AT_EPOCH":21492,"BSTAR":0.00045159085,"MEAN_MOTION_DOT":1.88e-6,"MEAN_MOTION_DDOT":0},{"OBJECT_NAME":"ONEWEB-0308","OBJECT_ID":"2021-075V","EPOCH":"2026-01-26T06:24:08.318880","MEAN_MOTION":13.12442671,"ECCENTRICITY":0.00018002,"INCLINATION":87.8937,"RA_OF_ASC_NODE":18.8291,"ARG_OF_PERICENTER":87.2688,"MEAN_ANOMALY":272.8646,"EPHEMERIS_TYPE":0,"CLASSIFICATION_TYPE":"U","NORAD_CAT_ID":49094,"ELEMENT_SET_NO":999,"REV_AT_EPOCH":21594,"BSTAR":0.0011534547,"MEAN_MOTION_DOT":4.28e-6,"MEAN_MOTION_DDOT":0},{"OBJECT_NAME":"ONEWEB-0309","OBJECT_ID":"2021-075W","EPOCH":"2026-01-26T07:35:19.193568","MEAN_MOTION":13.17651192,"ECCENTRICITY":0.00017664,"INCLINATION":87.9096,"RA_OF_ASC_NODE":34.0508,"ARG_OF_PERICENTER":104.1327,"MEAN_ANOMALY":256.0001,"EPHEMERIS_TYPE":0,"CLASSIFICATION_TYPE":"U","NORAD_CAT_ID":49095,"ELEMENT_SET_NO":999,"REV_AT_EPOCH":21489,"BSTAR":0.0002507236,"MEAN_MOTION_DOT":1.1e-6,"MEAN_MOTION_DDOT":0},{"OBJECT_NAME":"ONEWEB-0310","OBJECT_ID":"2021-075X","EPOCH":"2026-01-25T21:37:10.656192","MEAN_MOTION":13.12440852,"ECCENTRICITY":0.00017575,"INCLINATION":87.893,"RA_OF_ASC_NODE":18.9354,"ARG_OF_PERICENTER":87.9189,"MEAN_ANOMALY":272.214,"EPHEMERIS_TYPE":0,"CLASSIFICATION_TYPE":"U","NORAD_CAT_ID":49096,"ELEMENT_SET_NO":999,"REV_AT_EPOCH":21652,"BSTAR":0.00060170834,"MEAN_MOTION_DOT":2.29e-6,"MEAN_MOTION_DDOT":0},{"OBJECT_NAME":"ONEWEB-0311","OBJECT_ID":"2021-075Y","EPOCH":"2026-01-26T05:55:42.925440","MEAN_MOTION":13.17649198,"ECCENTRICITY":0.00021704,"INCLINATION":87.9096,"RA_OF_ASC_NODE":34.0596,"ARG_OF_PERICENTER":88.9786,"MEAN_ANOMALY":271.1594,"EPHEMERIS_TYPE":0,"CLASSIFICATION_TYPE":"U","NORAD_CAT_ID":49097,"ELEMENT_SET_NO":999,"REV_AT_EPOCH":21493,"BSTAR":-1.2821637e-5,"MEAN_MOTION_DOT":8.0e-8,"MEAN_MOTION_DDOT":0},{"OBJECT_NAME":"ONEWEB-0312","OBJECT_ID":"2021-075Z","EPOCH":"2026-01-26T06:17:33.672192","MEAN_MOTION":13.17650964,"ECCENTRICITY":0.00020752,"INCLINATION":87.9084,"RA_OF_ASC_NODE":34.0783,"ARG_OF_PERICENTER":97.8832,"MEAN_ANOMALY":262.2535,"EPHEMERIS_TYPE":0,"CLASSIFICATION_TYPE":"U","NORAD_CAT_ID":49098,"ELEMENT_SET_NO":999,"REV_AT_EPOCH":21491,"BSTAR":-0.00010667725,"MEAN_MOTION_DOT":-2.9e-7,"MEAN_MOTION_DDOT":0},{"OBJECT_NAME":"ONEWEB-0313","OBJECT_ID":"2021-075AA","EPOCH":"2026-01-25T23:07:16.034592","MEAN_MOTION":13.17651166,"ECCENTRICITY":0.00019342,"INCLINATION":87.9082,"RA_OF_ASC_NODE":34.1446,"ARG_OF_PERICENTER":89.2511,"MEAN_ANOMALY":270.8842,"EPHEMERIS_TYPE":0,"CLASSIFICATION_TYPE":"U","NORAD_CAT_ID":49099,"ELEMENT_SET_NO":999,"REV_AT_EPOCH":21486,"BSTAR":8.8934423e-5,"MEAN_MOTION_DOT":4.7e-7,"MEAN_MOTION_DDOT":0}]
